CREW DRAGON 8           
1 59097U 24042A   24183.64408770  .00014387  00000+0  26391-3 0  9992
2 59097  51.6383 243.6906 0009998  19.1018 341.0344 15.49488274 18520
SOYUZ-MS 25             
1 59294U 24055A   24183.64408770  .00014387  00000+0  26391-3 0  9995
2 59294  51.6383 243.6906 0009998  19.1018 341.0344 15.49488274 15043
MICROORBITER-1          
1 59483U 98067WF  24184.51315980  .00143747  00000+0  11519-2 0  9994
2 59483  51.6303 233.7251 0012094   6.3197 353.7950 15.69978417 12882
CURTIS                  
1 59507U 98067WG  24184.35920257  .00089350  00000+0  88563-3 0  9995
2 59507  51.6308 235.7005 0009039   5.5283 354.5811 15.65009098 12853
KASHIWA                 
1 59508U 98067WH  24184.52298427  .00192575  00000+0  13519-2 0  9994
2 59508  51.6281 233.0293 0013313   7.5018 352.6177 15.72936864 12900
1998-067WJ              
1 59559U 98067WJ  24184.54547193  .00087395  00000+0  91581-3 0  9998
2 59559  51.6337 235.4608 0008758 349.7999  10.2817 15.63614430 11741
1998-067WK              
1 59560U 98067WK  24184.50955889  .00257946  00000+0  15815-2 0  9997
2 59560  51.6290 232.9475 0015524 358.3206   1.7739 15.75826471 11696
1998-067WL              
1 59561U 98067WL  24183.53844925  .00039790  00000+0  54083-3 0  9994
2 59561  51.6347 242.2367 0005551 352.2848   7.8057 15.57177428 11532
BURSTCUBE               
1 59562U 98067WM  24184.54614947  .00085873  00000+0  88944-3 0  9992
2 59562  51.6342 235.4670 0009330  10.7652 349.3540 15.63911807 11723
SNOOPI                  
1 59563U 98067WN  24184.14304855  .00066421  00000+0  75075-3 0  9992
2 59563  51.6355 238.0297 0007960  10.4324 349.6833 15.61797054 11645
SHENZHOU-18 (SZ-18)     
1 59591U 24078A   24182.78008117  .00045483  00000+0  48637-3 0  9993
2 59591  41.4686   0.1893 0005040 306.3946  53.6428 15.63059514  8815
1998-067WP              
1 59596U 98067WP  24184.40874989  .00113815  00000+0  10337-2 0  9996
2 59596  51.6325 235.2915 0010548 353.8721   6.2145 15.67061889 11744
1998-067WQ              
1 59597U 98067WQ  24184.53238372  .00120688  00000+0  10847-2 0  9993
2 59597  51.6352 234.6301 0010691 354.6756   5.4125 15.67291162 11730
SZ-17 MODULE            
1 59624U 23164C   24184.52556088  .00040133  00000+0  37322-3 0  9990
2 59624  41.4771 348.9528 0007037 348.4740  11.5939 15.66599451  9949
PROGRESS-MS 27          
1 59913U 24103A   24183.64408770  .00014387  00000+0  26391-3 0  9997
2 59913  51.6383 243.6906 0009998  19.1018 341.0344 15.49488274  4498
STARLINER CFT-1         
1 59968U 24109A   24183.64408770  .00014387  00000+0  26391-3 0  9993
2 59968  51.6383 243.6906 0009998  19.1018 341.0344 15.49488274  4027
